[{"OBJECT_NAME":"FLOCK 4Q-2","OBJECT_ID":"2023-174BS","EPOCH":"2026-03-09T22:26:57.301152","MEAN_MOTION":15.45032023,"ECCENTRICITY":0.00079502,"INCLINATION":97.3857,"RA_OF_ASC_NODE":155.3481,"ARG_OF_PERICENTER":138.165,"MEAN_ANOMALY":222.0207,"EPHEMERIS_TYPE":0,"CLASSIFICATION_TYPE":"U","NORAD_CAT_ID":58320,"ELEMENT_SET_NO":999,"REV_AT_EPOCH":13025,"BSTAR":0.00060928671,"MEAN_MOTION_DOT":0.00028766,"MEAN_MOTION_DDOT":0},{"OBJECT_NAME":"STARLINK-36691","OBJECT_ID":"2026-026Q","EPOCH":"2026-03-09T22:00:01.999584","MEAN_MOTION":15.48626471,"ECCENTRICITY":0.00020438,"INCLINATION":97.2846,"RA_OF_ASC_NODE":123.5183,"ARG_OF_PERICENTER":78.8365,"MEAN_ANOMALY":168.343,"EPHEMERIS_TYPE":0,"CLASSIFICATION_TYPE":"U","NORAD_CAT_ID":67735,"ELEMENT_SET_NO":999,"REV_AT_EPOCH":548,"BSTAR":-0.039590806,"MEAN_MOTION_DOT":-0.01898481,"MEAN_MOTION_DDOT":0}]
